{
  "type": "Topology",
  "bbox": [2.0, 48.0, 10.0, 52.0],
  "transform": {
    "scale": [0.01, 0.01],
    "translate": [0.0, 40.0]
  },
  "objects": {
    "regions": {
      "type": "GeometryCollection",
      "geometries": [
        {
          "type": "Polygon",
          "id": "west",
          "properties": {
            "title": "West Region",
            "role": "shared-boundary demo"
          },
          "arcs": [[0, 1, 2, 3]]
        },
        {
          "type": "Polygon",
          "id": "east",
          "properties": {
            "title": "East Region",
            "role": "reversed shared arc"
          },
          "arcs": [[4, 5, 6, -2]]
        }
      ]
    },
    "route": {
      "type": "LineString",
      "properties": {
        "title": "Topology Route"
      },
      "arcs": [7, 8]
    },
    "nodes": {
      "type": "MultiPoint",
      "properties": {
        "title": "Topology Nodes"
      },
      "coordinates": [[200, 1000], [600, 1000], [1000, 1000]]
    },
    "sharedBoundary": {
      "type": "LineString",
      "properties": {
        "title": "Shared Boundary Arc"
      },
      "arcs": [1]
    }
  },
  "arcs": [
    [[200, 800], [400, 0]],
    [[600, 800], [0, 400]],
    [[600, 1200], [-400, 0]],
    [[200, 1200], [0, -400]],
    [[600, 800], [400, 0]],
    [[1000, 800], [0, 400]],
    [[1000, 1200], [-400, 0]],
    [[200, 1000], [400, 0]],
    [[600, 1000], [400, 0]]
  ]
}
